C:\Users\u0150099\Documents\master_thesis\3dpredictsim\OpenSimModel\subject1\track_Fal_s1_mtjc4_FK_sc_cspx10_cg7.mot
version=1
nRows=1
nColumns=34
inDegrees=yes
endheader
                time	/jointset/ground_pelvis/pelvis_tilt/value	/jointset/ground_pelvis/pelvis_list/value	/jointset/ground_pelvis/pelvis_rotation/value	/jointset/ground_pelvis/pelvis_tx/value	/jointset/ground_pelvis/pelvis_ty/value	/jointset/ground_pelvis/pelvis_tz/value	/jointset/hip_l/hip_flexion_l/value	/jointset/hip_l/hip_adduction_l/value	/jointset/hip_l/hip_rotation_l/value	/jointset/hip_r/hip_flexion_r/value	/jointset/hip_r/hip_adduction_r/value	/jointset/hip_r/hip_rotation_r/value	/jointset/knee_l/knee_angle_l/value	/jointset/knee_r/knee_angle_r/value	/jointset/ankle_l/ankle_angle_l/value	/jointset/ankle_r/ankle_angle_r/value	/jointset/subtalar_l/subtalar_angle_l/value	/jointset/subtalar_r/subtalar_angle_r/value	/jointset/midtarsal_l/mtj_angle_l/value	/jointset/midtarsal_r/mtj_angle_r/value	/jointset/mtp_l/mtp_angle_l/value	/jointset/mtp_r/mtp_angle_r/value	/jointset/back/lumbar_extension/value	/jointset/back/lumbar_bending/value	/jointset/back/lumbar_rotation/value	/jointset/acromial_l/arm_flex_l/value	/jointset/acromial_l/arm_add_l/value	/jointset/acromial_l/arm_rot_l/value	/jointset/acromial_r/arm_flex_r/value	/jointset/acromial_r/arm_add_r/value	/jointset/acromial_r/arm_rot_r/value	/jointset/elbow_l/elbow_flex_l/value	/jointset/elbow_r/elbow_flex_r/value	
          0.10000000	          0.78788049	          0.43899280	         -2.10339512	         -0.38704473	          0.94561653	         -0.20728551	         -0.64356515	          0.46795575	          0.00602429	         -1.29432306	          0.04443398	         -0.00147884	         -5.22005077	         -5.22322195	          5.40223580	          7.07821970	          0.17565792	         -0.50389193	         -0.00269201	          0.01749100	          0.15935689	          0.17538434	         -0.41141060	          0.85757063	         -1.46885764	         -9.18642163	        -12.97874547	         -1.63346058	         -6.34454333	        -15.00432239	         -1.98186920	         17.06023582	         18.13706582	
